{
    "links": {
        "self": "http://www.neowsapp.com/rest/v1/neo/54017404?api_key=iIulBulltgU6a56xZRHN4H3l9WmuAYTsLGpBGhQ2"
    },
    "id": "54017404",
    "neo_reference_id": "54017404",
    "name": "(2020 LQ)",
    "designation": "2020 LQ",
    "nasa_jpl_url": "http://ssd.jpl.nasa.gov/sbdb.cgi?sstr=54017404",
    "absolute_magnitude_h": 25.031,
    "estimated_diameter": {
        "kilometers": {
            "estimated_diameter_min": 0.0262032389,
            "estimated_diameter_max": 0.0585922234
        },
        "meters": {
            "estimated_diameter_min": 26.2032389117,
            "estimated_diameter_max": 58.5922234371
        },
        "miles": {
            "estimated_diameter_min": 0.0162819328,
            "estimated_diameter_max": 0.0364075085
        },
        "feet": {
            "estimated_diameter_min": 85.9686343509,
            "estimated_diameter_max": 192.2317103414
        }
    },
    "is_potentially_hazardous_asteroid": false,
    "close_approach_data": [
        {
            "close_approach_date": "2010-06-11",
            "close_approach_date_full": "2010-Jun-11 09:44",
            "epoch_date_close_approach": 1276249440000,
            "relative_velocity": {
                "kilometers_per_second": "14.5176590495",
                "kilometers_per_hour": "52263.5725781129",
                "miles_per_hour": "32474.5515277724"
            },
            "miss_distance": {
                "astronomical": "0.1317740817",
                "lunar": "51.2601177813",
                "kilometers": "19713121.943525979",
                "miles": "12249165.9743333502"
            },
            "orbiting_body": "Earth"
        },
        {
            "close_approach_date": "2015-06-09",
            "close_approach_date_full": "2015-Jun-09 06:31",
            "epoch_date_close_approach": 1433831460000,
            "relative_velocity": {
                "kilometers_per_second": "13.1584670253",
                "kilometers_per_hour": "47370.4812909799",
                "miles_per_hour": "29434.1748888314"
            },
            "miss_distance": {
                "astronomical": "0.0730877916",
                "lunar": "28.4311509324",
                "kilometers": "10933777.946363892",
                "miles": "6793934.5769380296"
            },
            "orbiting_body": "Earth"
        },
        {
            "close_approach_date": "2019-11-16",
            "close_approach_date_full": "2019-Nov-16 00:14",
            "epoch_date_close_approach": 1573863240000,
            "relative_velocity": {
                "kilometers_per_second": "9.8589832239",
                "kilometers_per_hour": "35492.3396061285",
                "miles_per_hour": "22053.5595735969"
            },
            "miss_distance": {
                "astronomical": "0.4554416809",
                "lunar": "177.1668138701",
                "kilometers": "68133105.371859683",
                "miles": "42335948.5340543054"
            },
            "orbiting_body": "Earth"
        },
        {
            "close_approach_date": "2020-06-06",
            "close_approach_date_full": "2020-Jun-06 22:57",
            "epoch_date_close_approach": 1591484220000,
            "relative_velocity": {
                "kilometers_per_second": "12.3035569247",
                "kilometers_per_hour": "44292.8049288242",
                "miles_per_hour": "27521.8264848019"
            },
            "miss_distance": {
                "astronomical": "0.0438131533",
                "lunar": "17.0433166337",
                "kilometers": "6554354.411663471",
                "miles": "4072686.9784030598"
            },
            "orbiting_body": "Earth"
        },
        {
            "close_approach_date": "2025-06-06",
            "close_approach_date_full": "2025-Jun-06 03:58",
            "epoch_date_close_approach": 1749182280000,
            "relative_velocity": {
                "kilometers_per_second": "11.7537957383",
                "kilometers_per_hour": "42313.6646577068",
                "miles_per_hour": "26292.0656868957"
            },
            "miss_distance": {
                "astronomical": "0.0442903414",
                "lunar": "17.2289428046",
                "kilometers": "6625740.735012818",
                "miles": "4117044.3828521684"
            },
            "orbiting_body": "Earth"
        }
    ],
    "orbital_data": {
        "orbit_id": "5",
        "orbit_determination_date": "2020-06-16 06:06:52",
        "first_observation_date": "2020-06-11",
        "last_observation_date": "2020-06-15",
        "data_arc_in_days": 4,
        "observations_used": 34,
        "orbit_uncertainty": "8",
        "minimum_orbit_intersection": ".041116",
        "jupiter_tisserand_invariant": "5.349",
        "epoch_osculation": "2459014.5",
        "eccentricity": ".2611043675543372",
        "semi_major_axis": "1.159647663491312",
        "inclination": "18.8891764805544",
        "ascending_node_longitude": "80.00920961099425",
        "orbital_period": "456.1288192419881",
        "perihelion_distance": ".8568585937295484",
        "perihelion_argument": "92.65613003969801",
        "aphelion_distance": "1.462436733253076",
        "perihelion_time": "2458939.018610380769",
        "mean_anomaly": "59.57374126914577",
        "mean_motion": ".7892507221934835",
        "equinox": "J2000",
        "orbit_class": {
            "orbit_class_type": "APO",
            "orbit_class_description": "Near-Earth asteroid orbits which cross the Earth’s orbit similar to that of 1862 Apollo",
            "orbit_class_range": "a (semi-major axis) > 1.0 AU; q (perihelion) < 1.017 AU"
        }
    },
    "is_sentry_object": false
}